{
  "type": "FeatureCollection",
  "features": [
    {
      "type": "Feature",
      "properties": {
        "norad_id": 29914,
        "name": "FENGYUN 1C DEB",
        "group": "fengyun-1c-debris",
        "lat": -38.01335352668478,
        "lon": 34.52960064611291,
        "alt_km": 902.2592001594139,
        "timestamp": "2025-12-25T07:41:09.995369+00:00",
        "meta_object_name": "FENGYUN 1C DEB",
        "meta_object_id": "1999-025HL",
        "meta_epoch": "2025-12-24T20:44:01.402368",
        "meta_mean_motion": 14.03132614,
        "meta_eccentricity": 0.00366731,
        "meta_inclination": 98.8423,
        "meta_ra_of_asc_node": 27.0975,
        "meta_arg_of_pericenter": 82.076,
        "meta_mean_anomaly": 95.959,
        "meta_ephemeris_type": 0,
        "meta_classification_type": "U",
        "meta_norad_cat_id": 29914,
        "meta_element_set_no": 999,
        "meta_rev_at_epoch": 96956,
        "meta_bstar": -1.9763924e-05,
        "meta_mean_motion_dot": -7.3e-07,
        "meta_mean_motion_ddot": 0,
        "tle_line1": "1 29914U 99025HL  25358.86390512 -.00000073  00000+0 -19764-4 0  9999",
        "tle_line2": "2 29914  98.8423  27.0975 0036673  82.0760  95.9590 14.03132614969566"
      },
      "geometry": {
        "type": "Point",
        "coordinates": [
          34.52960064611291,
          -38.01335352668478
        ]
      }
    },
    {
      "type": "Feature",
      "properties": {
        "norad_id": 29916,
        "name": "FENGYUN 1C DEB",
        "group": "fengyun-1c-debris",
        "lat": 35.586187921163884,
        "lon": 11.101769131858985,
        "alt_km": 1242.4085571803535,
        "timestamp": "2025-12-25T07:41:09.995379+00:00",
        "meta_object_name": "FENGYUN 1C DEB",
        "meta_object_id": "1999-025HN",
        "meta_epoch": "2025-12-24T17:36:49.270176",
        "meta_mean_motion": 13.56997595,
        "meta_eccentricity": 0.02715212,
        "meta_inclination": 99.1936,
        "meta_ra_of_asc_node": 17.2079,
        "meta_arg_of_pericenter": 227.8115,
        "meta_mean_anomaly": 184.9008,
        "meta_ephemeris_type": 0,
        "meta_classification_type": "U",
        "meta_norad_cat_id": 29916,
        "meta_element_set_no": 999,
        "meta_rev_at_epoch": 93615,
        "meta_bstar": 0.00057718631,
        "meta_mean_motion_dot": 4.79e-06,
        "meta_mean_motion_ddot": 0,
        "tle_line1": "1 29916U 99025HN  25358.73390359  .00000479  00000+0  57719-3 0  9995",
        "tle_line2": "2 29916  99.1936  17.2079 0271521 227.8115 184.9008 13.56997595936159"
      },
      "geometry": {
        "type": "Point",
        "coordinates": [
          11.101769131858985,
          35.586187921163884
        ]
      }
    },
    {
      "type": "Feature",
      "properties": {
        "norad_id": 29917,
        "name": "FENGYUN 1C DEB",
        "group": "fengyun-1c-debris",
        "lat": 10.973434771580429,
        "lon": -141.7324326759233,
        "alt_km": 966.5071284675796,
        "timestamp": "2025-12-25T07:41:09.995389+00:00",
        "meta_object_name": "FENGYUN 1C DEB",
        "meta_object_id": "1999-025HP",
        "meta_epoch": "2025-12-24T21:11:56.213664",
        "meta_mean_motion": 13.70443599,
        "meta_eccentricity": 0.02235101,
        "meta_inclination": 98.8765,
        "meta_ra_of_asc_node": 219.6002,
        "meta_arg_of_pericenter": 92.1648,
        "meta_mean_anomaly": 286.9108,
        "meta_ephemeris_type": 0,
        "meta_classification_type": "U",
        "meta_norad_cat_id": 29917,
        "meta_element_set_no": 999,
        "meta_rev_at_epoch": 94297,
        "meta_bstar": 0.0013749745,
        "meta_mean_motion_dot": 1.414e-05,
        "meta_mean_motion_ddot": 0,
        "tle_line1": "1 29917U 99025HP  25358.88328951  .00001414  00000+0  13750-2 0  9997",
        "tle_line2": "2 29917  98.8765 219.6002 0223510  92.1648 286.9108 13.70443599942976"
      },
      "geometry": {
        "type": "Point",
        "coordinates": [
          -141.7324326759233,
          10.973434771580429
        ]
      }
    },
    {
      "type": "Feature",
      "properties": {
        "norad_id": 29918,
        "name": "FENGYUN 1C DEB",
        "group": "fengyun-1c-debris",
        "lat": -1.2947845606168251,
        "lon": -98.1554045981278,
        "alt_km": 783.4259326475094,
        "timestamp": "2025-12-25T07:41:09.995400+00:00",
        "meta_object_name": "FENGYUN 1C DEB",
        "meta_object_id": "1999-025HQ",
        "meta_epoch": "2025-12-24T19:38:41.817984",
        "meta_mean_motion": 14.33687934,
        "meta_eccentricity": 0.00135099,
        "meta_inclination": 98.8534,
        "meta_ra_of_asc_node": 81.5333,
        "meta_arg_of_pericenter": 278.156,
        "meta_mean_anomaly": 195.168,
        "meta_ephemeris_type": 0,
        "meta_classification_type": "U",
        "meta_norad_cat_id": 29918,
        "meta_element_set_no": 999,
        "meta_rev_at_epoch": 97967,
        "meta_bstar": 0.0014170565,
        "meta_mean_motion_dot": 3.891e-05,
        "meta_mean_motion_ddot": 0,
        "tle_line1": "1 29918U 99025HQ  25358.81853956  .00003891  00000+0  14171-2 0  9998",
        "tle_line2": "2 29918  98.8534  81.5333 0013509 278.1560 195.1680 14.33687934979674"
      },
      "geometry": {
        "type": "Point",
        "coordinates": [
          -98.1554045981278,
          -1.2947845606168251
        ]
      }
    },
    {
      "type": "Feature",
      "properties": {
        "norad_id": 29919,
        "name": "FENGYUN 1C DEB",
        "group": "fengyun-1c-debris",
        "lat": 79.72472751467554,
        "lon": 27.928870673519096,
        "alt_km": 1021.6321971988355,
        "timestamp": "2025-12-25T07:41:09.995410+00:00",
        "meta_object_name": "FENGYUN 1C DEB",
        "meta_object_id": "1999-025HR",
        "meta_epoch": "2025-12-24T08:49:56.807904",
        "meta_mean_motion": 13.85127889,
        "meta_eccentricity": 0.01369015,
        "meta_inclination": 98.4797,
        "meta_ra_of_asc_node": 151.6906,
        "meta_arg_of_pericenter": 311.8392,
        "meta_mean_anomaly": 77.4146,
        "meta_ephemeris_type": 0,
        "meta_classification_type": "U",
        "meta_norad_cat_id": 29919,
        "meta_element_set_no": 999,
        "meta_rev_at_epoch": 95696,
        "meta_bstar": 0.00016100159,
        "meta_mean_motion_dot": 1.57e-06,
        "meta_mean_motion_ddot": 0,
        "tle_line1": "1 29919U 99025HR  25358.36801861  .00000157  00000+0  16100-3 0  9994",
        "tle_line2": "2 29919  98.4797 151.6906 0136901 311.8392  77.4146 13.85127889956967"
      },
      "geometry": {
        "type": "Point",
        "coordinates": [
          27.928870673519096,
          79.72472751467554
        ]
      }
    },
    {
      "type": "Feature",
      "properties": {
        "norad_id": 29920,
        "name": "FENGYUN 1C DEB",
        "group": "fengyun-1c-debris",
        "lat": 81.59469185714617,
        "lon": 125.51527600446262,
        "alt_km": 955.9467730884217,
        "timestamp": "2025-12-25T07:41:09.995421+00:00",
        "meta_object_name": "FENGYUN 1C DEB",
        "meta_object_id": "1999-025HS",
        "meta_epoch": "2025-12-21T12:34:58.800288",
        "meta_mean_motion": 14.03693596,
        "meta_eccentricity": 0.01249732,
        "meta_inclination": 98.3912,
        "meta_ra_of_asc_node": 209.3515,
        "meta_arg_of_pericenter": 255.9523,
        "meta_mean_anomaly": 102.7727,
        "meta_ephemeris_type": 0,
        "meta_classification_type": "U",
        "meta_norad_cat_id": 29920,
        "meta_element_set_no": 999,
        "meta_rev_at_epoch": 96411,
        "meta_bstar": 0.0011522683,
        "meta_mean_motion_dot": 1.901e-05,
        "meta_mean_motion_ddot": 0,
        "tle_line1": "1 29920U 99025HS  25355.52429167  .00001901  00000+0  11523-2 0  9997",
        "tle_line2": "2 29920  98.3912 209.3515 0124973 255.9523 102.7727 14.03693596964111"
      },
      "geometry": {
        "type": "Point",
        "coordinates": [
          125.51527600446262,
          81.59469185714617
        ]
      }
    },
    {
      "type": "Feature",
      "properties": {
        "norad_id": 29921,
        "name": "FENGYUN 1C DEB",
        "group": "fengyun-1c-debris",
        "lat": 59.05537033475126,
        "lon": -9.876396908685669,
        "alt_km": 834.8902340237009,
        "timestamp": "2025-12-25T07:41:09.995431+00:00",
        "meta_object_name": "FENGYUN 1C DEB",
        "meta_object_id": "1999-025HT",
        "meta_epoch": "2025-12-24T18:35:03.965280",
        "meta_mean_motion": 14.06657244,
        "meta_eccentricity": 0.00460522,
        "meta_inclination": 98.7867,
        "meta_ra_of_asc_node": 4.5434,
        "meta_arg_of_pericenter": 36.3848,
        "meta_mean_anomaly": 140.7528,
        "meta_ephemeris_type": 0,
        "meta_classification_type": "U",
        "meta_norad_cat_id": 29921,
        "meta_element_set_no": 999,
        "meta_rev_at_epoch": 97045,
        "meta_bstar": 0.00045241367,
        "meta_mean_motion_dot": 7.15e-06,
        "meta_mean_motion_ddot": 0,
        "tle_line1": "1 29921U 99025HT  25358.77435145  .00000715  00000+0  45241-3 0  9998",
        "tle_line2": "2 29921  98.7867   4.5434 0046052  36.3848 140.7528 14.06657244970450"
      },
      "geometry": {
        "type": "Point",
        "coordinates": [
          -9.876396908685669,
          59.05537033475126
        ]
      }
    }
  ]
}